[{"OBJECT_NAME":"STARLINK-3193","OBJECT_ID":"2021-115AG","EPOCH":"2026-03-09T09:57:17.242560","MEAN_MOTION":15.08833512,"ECCENTRICITY":0.00011964,"INCLINATION":53.217,"RA_OF_ASC_NODE":140.458,"ARG_OF_PERICENTER":100.8039,"MEAN_ANOMALY":259.3088,"EPHEMERIS_TYPE":0,"CLASSIFICATION_TYPE":"U","NORAD_CAT_ID":49754,"ELEMENT_SET_NO":999,"REV_AT_EPOCH":23563,"BSTAR":-1.8684525e-5,"MEAN_MOTION_DOT":-5.85e-6,"MEAN_MOTION_DDOT":0},{"OBJECT_NAME":"ST5-C","OBJECT_ID":"2006-008C","EPOCH":"2026-03-09T21:55:58.762848","MEAN_MOTION":14.1017189,"ECCENTRICITY":0.08295695,"INCLINATION":105.4657,"RA_OF_ASC_NODE":199.8685,"ARG_OF_PERICENTER":126.1146,"MEAN_ANOMALY":241.9722,"EPHEMERIS_TYPE":0,"CLASSIFICATION_TYPE":"U","NORAD_CAT_ID":28982,"ELEMENT_SET_NO":999,"REV_AT_EPOCH":54192,"BSTAR":0.0012623918,"MEAN_MOTION_DOT":0.0010872,"MEAN_MOTION_DDOT":6.160981e-6}]
